STARLINK-1707_new
1 16359C 20062AM  21326.14793365  .00004891  00000-0  32769-3 0  3265
2 16359  53.0514 173.0823 0001945  76.7298 175.7023 15.06391142    17
STARLINK-1707_old
1 26359C 20062AM  21325.16235506  .00004006  00000-0  26846-3 0  3250
2 26359  53.0515 177.5069 0001899  75.8908 228.7793 15.06388031    11
